{
  "norad_id": 59952,
  "name": "STARLINK-11124 [DTC]",
  "history": [
    {
      "epoch": "2026-03-28T14:05:32.141184Z",
      "apogee_km": 360.7545183418988,
      "perigee_km": 358.6509647745834,
      "latitude_deg": -4.34182011971298e-05,
      "longitude_deg": 120.7424616359914,
      "height_km": 359.9678083038095,
      "semi_major_axis_km": 6737.83974155824,
      "eccentricity": 0.0001561,
      "inclination_deg": 53.1586,
      "raan_deg": 158.1319,
      "arg_perigee_deg": 51.9483,
      "mean_anomaly_deg": 308.1675,
      "mean_motion_rev_day": 15.6971839
    }
  ]
}