{"fetched_at":"2026-03-29T02:12:04Z","count":15717,"tles":[{"name":"STARLINK-11124 [DTC]","line1":"1 59952U 24107H   26087.58717757  .00001539  00000+0  17555-4 0  9998","line2":"2 59952  53.1586 158.1319 0001561  51.9483 308.1675 15.69718390105185","category":"Starlink"}]}